start=new Date('2022-04-16T00:00:00.000Z').valueOf();
sats=[{"TLE_LINE1":"1 46590U 20070BL  22106.06195998  .04472199  41850-1  48202-2 0  9994","OBJECT_ID":"2020-070BL","CENTER_NAME":"EARTH","ELEMENT_SET_NO":"999","GP_ID":"201320259","OBJECT_TYPE":"PAYLOAD","NORAD_CAT_ID":"46590","MEAN_MOTION":"16.13230989","MEAN_ELEMENT_THEORY":"SGP4","COUNTRY_CODE":"US","REV_AT_EPOCH":"8717","LAUNCH_DATE":"2020-10-06","EPHEMERIS_TYPE":"0","PERIAPSIS":"233.422","RA_OF_ASC_NODE":"285.9567","TLE_LINE2":"2 46590  53.0457 285.9567 0006915 293.3667  66.6560 16.13230989 87173","FILE":"3403528","MEAN_ANOMALY":"66.6560","BSTAR":"0.00482020000000","PERIOD":"89.262","OBJECT_NAME":"STARLINK-1754","SITE":"AFETR","SEMIMAJOR_AXIS":"6616.132","TIME_SYSTEM":"UTC","REF_FRAME":"TEME","RCS_SIZE":"LARGE","DECAY_DATE":null,"MEAN_MOTION_DDOT":"0.0418500000000","MEAN_MOTION_DOT":"0.04472199","APOAPSIS":"242.572","CLASSIFICATION_TYPE":"U","INCLINATION":"53.0457","EPOCH":"2022-04-16T01:29:13.342272","ECCENTRICITY":"0.00069150","ARG_OF_PERICENTER":"293.3667"},{"OBJECT_ID":"2020-070BM","CENTER_NAME":"EARTH","ELEMENT_SET_NO":"999","OBJECT_TYPE":"PAYLOAD","GP_ID":"201305831","MEAN_MOTION":"15.06398203","NORAD_CAT_ID":"46591","TLE_LINE1":"1 46591U 20070BM  22105.17694703  .00002075  00000-0  15818-3 0  9991","LAUNCH_DATE":"2020-10-06","EPHEMERIS_TYPE":"0","PERIAPSIS":"546.090","MEAN_ELEMENT_THEORY":"SGP4","COUNTRY_CODE":"US","REV_AT_EPOCH":"8413","RA_OF_ASC_NODE":"71.5050","MEAN_ANOMALY":"295.9569","BSTAR":"0.00015818000000","TLE_LINE2":"2 46591  53.0550  71.5050 0001631  64.1588 295.9569 15.06398203 84134","FILE":"3403095","SEMIMAJOR_AXIS":"6925.354","PERIOD":"95.592","OBJECT_NAME":"STARLINK-1755","SITE":"AFETR","MEAN_MOTION_DOT":"0.00002075","MEAN_MOTION_DDOT":"0.0000000000000","TIME_SYSTEM":"UTC","REF_FRAME":"TEME","DECAY_DATE":null,"RCS_SIZE":"LARGE","INCLINATION":"53.0550","APOAPSIS":"548.349","CLASSIFICATION_TYPE":"U","ARG_OF_PERICENTER":"64.1588","ECCENTRICITY":"0.00016310","EPOCH":"2022-04-15T04:14:48.223392"},{"CLASSIFICATION_TYPE":"U","APOAPSIS":"548.541","INCLINATION":"53.0537","EPOCH":"2022-04-15T20:18:08.681184","ARG_OF_PERICENTER":"48.8385","ECCENTRICITY":"0.00019090","OBJECT_NAME":"STARLINK-1715","PERIOD":"95.592","SITE":"AFETR","SEMIMAJOR_AXIS":"6925.354","REF_FRAME":"TEME","TIME_SYSTEM":"UTC","RCS_SIZE":"LARGE","DECAY_DATE":null,"MEAN_MOTION_DDOT":"0.0000000000000","MEAN_MOTION_DOT":"-0.00002369","RA_OF_ASC_NODE":"158.5059","TLE_LINE2":"2 46671  53.0537 158.5059 0001909  48.8385 311.2769 15.06398162 82456","FILE":"3403567","MEAN_ANOMALY":"311.2769","BSTAR":"-0.00014020000000","TLE_LINE1":"1 46671U 20073B   22105.84593381 -.00002369  00000-0 -14020-3 0  9999","ELEMENT_SET_NO":"999","CENTER_NAME":"EARTH","OBJECT_ID":"2020-073B","NORAD_CAT_ID":"46671","MEAN_MOTION":"15.06398162","GP_ID":"201341001","OBJECT_TYPE":"PAYLOAD","REV_AT_EPOCH":"8245","COUNTRY_CODE":"US","MEAN_ELEMENT_THEORY":"SGP4","LAUNCH_DATE":"2020-10-18","EPHEMERIS_TYPE":"0","PERIAPSIS":"545.897"},{"RA_OF_ASC_NODE":"153.6072","FILE":"3403567","TLE_LINE2":"2 46672  53.0528 153.6072 0001985  52.9120 307.2051 15.06424571 82526","MEAN_ANOMALY":"307.2051","BSTAR":"0.00039843000000","TLE_LINE1":"1 46672U 20073C   22105.81969180  .00005662  00000-0  39843-3 0  9998","OBJECT_TYPE":"PAYLOAD","GP_ID":"201341753","MEAN_MOTION":"15.06424571","NORAD_CAT_ID":"46672","OBJECT_ID":"2020-073C","CENTER_NAME":"EARTH","ELEMENT_SET_NO":"999","COUNTRY_CODE":"US","MEAN_ELEMENT_THEORY":"SGP4","REV_AT_EPOCH":"8252","PERIAPSIS":"545.764","EPHEMERIS_TYPE":"0","LAUNCH_DATE":"2020-10-18","CLASSIFICATION_TYPE":"U","APOAPSIS":"548.513","INCLINATION":"53.0528","EPOCH":"2022-04-15T19:40:21.371520","ECCENTRICITY":"0.00019850","ARG_OF_PERICENTER":"52.9120","SITE":"AFETR","PERIOD":"95.591","OBJECT_NAME":"STARLINK-1716","SEMIMAJOR_AXIS":"6925.273","DECAY_DATE":null,"RCS_SIZE":"LARGE","TIME_SYSTEM":"UTC","REF_FRAME":"TEME","MEAN_MOTION_DDOT":"0.0000000000000","MEAN_MOTION_DOT":"0.00005662"},{"MEAN_MOTION_DOT":"0.00001830","MEAN_MOTION_DDOT":"0.0000000000000","TIME_SYSTEM":"UTC","REF_FRAME":"TEME","RCS_SIZE":"LARGE","DECAY_DATE":null,"SEMIMAJOR_AXIS":"6925.325","PERIOD":"95.592","OBJECT_NAME":"STARLINK-1717","SITE":"AFETR","ARG_OF_PERICENTER":"54.1862","ECCENTRICITY":"0.00017590","EPOCH":"2022-04-15T12:35:02.992416","INCLINATION":"53.0538","CLASSIFICATION_TYPE":"U","APOAPSIS":"548.408","LAUNCH_DATE":"2020-10-18","EPHEMERIS_TYPE":"0","PERIAPSIS":"545.972","MEAN_ELEMENT_THEORY":"SGP4","COUNTRY_CODE":"US","REV_AT_EPOCH":"8226","OBJECT_ID":"2020-073D","CENTER_NAME":"EARTH","ELEMENT_SET_NO":"999","GP_ID":"201307090","OBJECT_TYPE":"PAYLOAD","NORAD_CAT_ID":"46673","MEAN_MOTION":"15.06407700","TLE_LINE1":"1 46673U 20073D   22105.52434019  .00001830  00000-0  14168-3 0  9991","BSTAR":"0.00014168000000","MEAN_ANOMALY":"305.9290","TLE_LINE2":"2 46673  53.0538 169.9553 0001759  54.1862 305.9290 15.06407700 82264","FILE":"3403095","RA_OF_ASC_NODE":"169.9553"},{"TLE_LINE2":"2 46674  53.0535 155.0006 0001679  55.8490 304.2658 15.06395490 82472","FILE":"3403095","MEAN_ANOMALY":"304.2658","BSTAR":"-0.00016594000000","RA_OF_ASC_NODE":"155.0006","MEAN_ELEMENT_THEORY":"SGP4","COUNTRY_CODE":"US","REV_AT_EPOCH":"8247","LAUNCH_DATE":"2020-10-18","EPHEMERIS_TYPE":"0","PERIAPSIS":"546.065","TLE_LINE1":"1 46674U 20073E   22105.51376430 -.00002752  00000-0 -16594-3 0  9994","OBJECT_ID":"2020-073E","CENTER_NAME":"EARTH","ELEMENT_SET_NO":"999","OBJECT_TYPE":"PAYLOAD","GP_ID":"201307340","NORAD_CAT_ID":"46674","MEAN_MOTION":"15.06395490","EPOCH":"2022-04-15T12:19:49.235520","ARG_OF_PERICENTER":"55.8490","ECCENTRICITY":"0.00016790","CLASSIFICATION_TYPE":"U","APOAPSIS":"548.390","INCLINATION":"53.0535","TIME_SYSTEM":"UTC","REF_FRAME":"TEME","DECAY_DATE":null,"RCS_SIZE":"LARGE","MEAN_MOTION_DOT":"-0.00002752","MEAN_MOTION_DDOT":"0.0000000000000","PERIOD":"95.592","OBJECT_NAME":"STARLINK-1718","SITE":"AFETR","SEMIMAJOR_AXIS":"6925.362"},{"PERIOD":"95.592","OBJECT_NAME":"STARLINK-1720","SITE":"AFETR","SEMIMAJOR_AXIS":"6925.333","TIME_SYSTEM":"UTC","REF_FRAME":"TEME","DECAY_DATE":null,"RCS_SIZE":"LARGE","MEAN_MOTION_DDOT":"0.0000000000000","MEAN_MOTION_DOT":"0.00001254","CLASSIFICATION_TYPE":"U","APOAPSIS":"548.538","INCLINATION":"53.0532","EPOCH":"2022-04-15T20:12:12.170592","ARG_OF_PERICENTER":"55.8103","ECCENTRICITY":"0.00019350","TLE_LINE1":"1 46675U 20073F   22105.84180753  .00001254  00000-0  10304-3 0  9999","OBJECT_ID":"2020-073F","ELEMENT_SET_NO":"999","CENTER_NAME":"EARTH","GP_ID":"201341501","OBJECT_TYPE":"PAYLOAD","MEAN_MOTION":"15.06404981","NORAD_CAT_ID":"46675","COUNTRY_CODE":"US","MEAN_ELEMENT_THEORY":"SGP4","REV_AT_EPOCH":"8252","LAUNCH_DATE":"2020-10-18","EPHEMERIS_TYPE":"0","PERIAPSIS":"545.858","RA_OF_ASC_NODE":"153.5324","TLE_LINE2":"2 46675  53.0532 153.5324 0001935  55.8103 304.3070 15.06404981 82523","FILE":"3403567","BSTAR":"0.00010304000000","MEAN_ANOMALY":"304.3070"},{"MEAN_MOTION_DOT":"0.00001680","MEAN_MOTION_DDOT":"0.0000000000000","DECAY_DATE":null,"RCS_SIZE":"LARGE","REF_FRAME":"TEME","TIME_SYSTEM":"UTC","SEMIMAJOR_AXIS":"6925.295","SITE":"AFETR","OBJECT_NAME":"STARLINK-1766","PERIOD":"95.591","ARG_OF_PERICENTER":"44.1118","ECCENTRICITY":"0.00017910","EPOCH":"2022-04-15T20:06:52.627104","INCLINATION":"53.0527","CLASSIFICATION_TYPE":"U","APOAPSIS":"548.400","PERIAPSIS":"545.920","EPHEMERIS_TYPE":"0","LAUNCH_DATE":"2020-10-18","REV_AT_EPOCH":"8252","MEAN_ELEMENT_THEORY":"SGP4","COUNTRY_CODE":"US","MEAN_MOTION":"15.06417485","NORAD_CAT_ID":"46677","OBJECT_TYPE":"PAYLOAD","GP_ID":"201342253","ELEMENT_SET_NO":"999","CENTER_NAME":"EARTH","OBJECT_ID":"2020-073H","TLE_LINE1":"1 46677U 20073H   22105.83810911  .00001680  00000-0  13163-3 0  9995","MEAN_ANOMALY":"316.0014","BSTAR":"0.00013163000000","FILE":"3403567","TLE_LINE2":"2 46677  53.0527 153.5360 0001791  44.1118 316.0014 15.06417485 82527","RA_OF_ASC_NODE":"153.5360"},{"TLE_LINE1":"1 46679U 20073K   22105.77730223 -.00000719  00000-0 -29393-4 0  9994","OBJECT_ID":"2020-073K","CENTER_NAME":"EARTH","ELEMENT_SET_NO":"999","OBJECT_TYPE":"PAYLOAD","GP_ID":"201342004","NORAD_CAT_ID":"46679","MEAN_MOTION":"15.06398177","COUNTRY_CODE":"US","MEAN_ELEMENT_THEORY":"SGP4","REV_AT_EPOCH":"8279","LAUNCH_DATE":"2020-10-18","EPHEMERIS_TYPE":"0","PERIAPSIS":"545.966","RA_OF_ASC_NODE":"133.8188","TLE_LINE2":"2 46679  53.0555 133.8188 0001810  50.0399 310.0749 15.06398177 82792","FILE":"3403567","BSTAR":"-0.00002939300000","MEAN_ANOMALY":"310.0749","PERIOD":"95.592","OBJECT_NAME":"STARLINK-1773","SITE":"AFETR","SEMIMAJOR_AXIS":"6925.354","TIME_SYSTEM":"UTC","REF_FRAME":"TEME","RCS_SIZE":"LARGE","DECAY_DATE":null,"MEAN_MOTION_DOT":"-0.00000719","MEAN_MOTION_DDOT":"0.0000000000000","CLASSIFICATION_TYPE":"U","APOAPSIS":"548.473","INCLINATION":"53.0555","EPOCH":"2022-04-15T18:39:18.912672","ARG_OF_PERICENTER":"50.0399","ECCENTRICITY":"0.00018100"},{"CENTER_NAME":"EARTH","ELEMENT_SET_NO":"999","OBJECT_ID":"2020-073L","NORAD_CAT_ID":"46680","MEAN_MOTION":"15.06417458","GP_ID":"201340752","OBJECT_TYPE":"PAYLOAD","TLE_LINE1":"1 46680U 20073L   22105.91230167  .00009462  00000-0  65294-3 0  9995","EPHEMERIS_TYPE":"0","LAUNCH_DATE":"2020-10-18","PERIAPSIS":"545.943","REV_AT_EPOCH":"8232","COUNTRY_CODE":"US","MEAN_ELEMENT_THEORY":"SGP4","RA_OF_ASC_NODE":"168.2073","BSTAR":"0.00065294000000","MEAN_ANOMALY":"307.3624","TLE_LINE2":"2 46680  53.0553 168.2073 0001757  52.7525 307.3624 15.06417458 82321","FILE":"3403567","SEMIMAJOR_AXIS":"6925.295","OBJECT_NAME":"STARLINK-1774","PERIOD":"95.591","SITE":"AFETR","MEAN_MOTION_DOT":"0.00009462","MEAN_MOTION_DDOT":"0.0000000000000","REF_FRAME":"TEME","TIME_SYSTEM":"UTC","RCS_SIZE":"LARGE","DECAY_DATE":null,"INCLINATION":"53.0553","CLASSIFICATION_TYPE":"U","APOAPSIS":"548.377","ARG_OF_PERICENTER":"52.7525","ECCENTRICITY":"0.00017570","EPOCH":"2022-04-15T21:53:42.864288"}];
